CCSDS_OMM_VERS = 2.0
CREATION_DATE  = 
ORIGINATOR     = 

OBJECT_NAME    = STARLINK-36772
OBJECT_ID      = 2026-026A
CENTER_NAME    = EARTH
REF_FRAME      = TEME
TIME_SYSTEM    = UTC
MEAN_ELEMENT_THEORY = SGP/SGP4

EPOCH          = 2026-03-12T22:00:01.999584
MEAN_MOTION    = 15.34210069
ECCENTRICITY   = .00008887
INCLINATION    = 97.2848
RA_OF_ASC_NODE = 126.4173
ARG_OF_PERICENTER = 87.5687
MEAN_ANOMALY   = 21.3123

EPHEMERIS_TYPE = 0
CLASSIFICATION_TYPE = U
NORAD_CAT_ID   = 67721
ELEMENT_SET_NO = 999
REV_AT_EPOCH   = 583
BSTAR          = .11977947E-2
MEAN_MOTION_DOT = .39745E-3
MEAN_MOTION_DDOT = 0

CCSDS_OMM_VERS = 2.0
CREATION_DATE  = 
ORIGINATOR     = 

OBJECT_NAME    = STARLINK-36796
OBJECT_ID      = 2026-026B
CENTER_NAME    = EARTH
REF_FRAME      = TEME
TIME_SYSTEM    = UTC
MEAN_ELEMENT_THEORY = SGP/SGP4

EPOCH          = 2026-03-12T22:00:01.999584
MEAN_MOTION    = 15.34229024
ECCENTRICITY   = .00017148
INCLINATION    = 97.2852
RA_OF_ASC_NODE = 126.4038
ARG_OF_PERICENTER = 51.0947
MEAN_ANOMALY   = 29.5838

EPHEMERIS_TYPE = 0
CLASSIFICATION_TYPE = U
NORAD_CAT_ID   = 67722
ELEMENT_SET_NO = 999
REV_AT_EPOCH   = 583
BSTAR          = .10428618E-2
MEAN_MOTION_DOT = .34592E-3
MEAN_MOTION_DDOT = 0

CCSDS_OMM_VERS = 2.0
CREATION_DATE  = 
ORIGINATOR     = 

OBJECT_NAME    = STARLINK-36369
OBJECT_ID      = 2026-026C
CENTER_NAME    = EARTH
REF_FRAME      = TEME
TIME_SYSTEM    = UTC
MEAN_ELEMENT_THEORY = SGP/SGP4

EPOCH          = 2026-03-12T22:00:01.999584
MEAN_MOTION    = 15.36189708
ECCENTRICITY   = .00020214
INCLINATION    = 97.2850
RA_OF_ASC_NODE = 126.4349
ARG_OF_PERICENTER = 86.0385
MEAN_ANOMALY   = 52.5570

EPHEMERIS_TYPE = 0
CLASSIFICATION_TYPE = U
NORAD_CAT_ID   = 67723
ELEMENT_SET_NO = 999
REV_AT_EPOCH   = 583
BSTAR          = -.72643383E-1
MEAN_MOTION_DOT = -.2285954E-1
MEAN_MOTION_DDOT = 0

CCSDS_OMM_VERS = 2.0
CREATION_DATE  = 
ORIGINATOR     = 

OBJECT_NAME    = STARLINK-36752
OBJECT_ID      = 2026-026D
CENTER_NAME    = EARTH
REF_FRAME      = TEME
TIME_SYSTEM    = UTC
MEAN_ELEMENT_THEORY = SGP/SGP4

EPOCH          = 2026-03-12T22:00:01.999584
MEAN_MOTION    = 15.33404045
ECCENTRICITY   = .00013906
INCLINATION    = 97.2848
RA_OF_ASC_NODE = 126.4393
ARG_OF_PERICENTER = 83.4215
MEAN_ANOMALY   = 72.8595

EPHEMERIS_TYPE = 0
CLASSIFICATION_TYPE = U
NORAD_CAT_ID   = 67724
ELEMENT_SET_NO = 999
REV_AT_EPOCH   = 583
BSTAR          = .6717646E-3
MEAN_MOTION_DOT = .21646E-3
MEAN_MOTION_DDOT = 0

CCSDS_OMM_VERS = 2.0
CREATION_DATE  = 
ORIGINATOR     = 

OBJECT_NAME    = STARLINK-36754
OBJECT_ID      = 2026-026E
CENTER_NAME    = EARTH
REF_FRAME      = TEME
TIME_SYSTEM    = UTC
MEAN_ELEMENT_THEORY = SGP/SGP4

EPOCH          = 2026-03-12T22:00:01.999584
MEAN_MOTION    = 15.34197164
ECCENTRICITY   = .00018387
INCLINATION    = 97.2851
RA_OF_ASC_NODE = 126.4174
ARG_OF_PERICENTER = 99.0010
MEAN_ANOMALY   = 6.2943

EPHEMERIS_TYPE = 0
CLASSIFICATION_TYPE = U
NORAD_CAT_ID   = 67725
ELEMENT_SET_NO = 999
REV_AT_EPOCH   = 583
BSTAR          = .7770654E-3
MEAN_MOTION_DOT = .257E-3
MEAN_MOTION_DDOT = 0

CCSDS_OMM_VERS = 2.0
CREATION_DATE  = 
ORIGINATOR     = 

OBJECT_NAME    = STARLINK-36755
OBJECT_ID      = 2026-026F
CENTER_NAME    = EARTH
REF_FRAME      = TEME
TIME_SYSTEM    = UTC
MEAN_ELEMENT_THEORY = SGP/SGP4

EPOCH          = 2026-03-12T22:00:01.999584
MEAN_MOTION    = 15.45153636
ECCENTRICITY   = .00015347
INCLINATION    = 97.2855
RA_OF_ASC_NODE = 126.4284
ARG_OF_PERICENTER = 71.7309
MEAN_ANOMALY   = 55.7749

EPHEMERIS_TYPE = 0
CLASSIFICATION_TYPE = U
NORAD_CAT_ID   = 67726
ELEMENT_SET_NO = 999
REV_AT_EPOCH   = 583
BSTAR          = -.43949679E-1
MEAN_MOTION_DOT = -.1870988E-1
MEAN_MOTION_DDOT = 0

CCSDS_OMM_VERS = 2.0
CREATION_DATE  = 
ORIGINATOR     = 

OBJECT_NAME    = STARLINK-36741
OBJECT_ID      = 2026-026G
CENTER_NAME    = EARTH
REF_FRAME      = TEME
TIME_SYSTEM    = UTC
MEAN_ELEMENT_THEORY = SGP/SGP4

EPOCH          = 2026-03-12T22:00:01.999584
MEAN_MOTION    = 15.37193373
ECCENTRICITY   = .00018105
INCLINATION    = 97.2852
RA_OF_ASC_NODE = 126.4213
ARG_OF_PERICENTER = 84.0948
MEAN_ANOMALY   = 20.4705

EPHEMERIS_TYPE = 0
CLASSIFICATION_TYPE = U
NORAD_CAT_ID   = 67727
ELEMENT_SET_NO = 999
REV_AT_EPOCH   = 583
BSTAR          = -.71570351E-1
MEAN_MOTION_DOT = -.2322113E-1
MEAN_MOTION_DDOT = 0

CCSDS_OMM_VERS = 2.0
CREATION_DATE  = 
ORIGINATOR     = 

OBJECT_NAME    = STARLINK-36757
OBJECT_ID      = 2026-026H
CENTER_NAME    = EARTH
REF_FRAME      = TEME
TIME_SYSTEM    = UTC
MEAN_ELEMENT_THEORY = SGP/SGP4

EPOCH          = 2026-03-12T22:00:01.999584
MEAN_MOTION    = 15.34632894
ECCENTRICITY   = .00012712
INCLINATION    = 97.2847
RA_OF_ASC_NODE = 126.4626
ARG_OF_PERICENTER = 76.2035
MEAN_ANOMALY   = 135.8797

EPHEMERIS_TYPE = 0
CLASSIFICATION_TYPE = U
NORAD_CAT_ID   = 67728
ELEMENT_SET_NO = 999
REV_AT_EPOCH   = 583
BSTAR          = -.18279197E-1
MEAN_MOTION_DOT = -.568902E-2
MEAN_MOTION_DDOT = 0

CCSDS_OMM_VERS = 2.0
CREATION_DATE  = 
ORIGINATOR     = 

OBJECT_NAME    = STARLINK-36751
OBJECT_ID      = 2026-026J
CENTER_NAME    = EARTH
REF_FRAME      = TEME
TIME_SYSTEM    = UTC
MEAN_ELEMENT_THEORY = SGP/SGP4

EPOCH          = 2026-03-12T22:00:01.999584
MEAN_MOTION    = 15.34656047
ECCENTRICITY   = .00013029
INCLINATION    = 97.2849
RA_OF_ASC_NODE = 126.4752
ARG_OF_PERICENTER = 74.5807
MEAN_ANOMALY   = 167.2670

EPHEMERIS_TYPE = 0
CLASSIFICATION_TYPE = U
NORAD_CAT_ID   = 67729
ELEMENT_SET_NO = 999
REV_AT_EPOCH   = 583
BSTAR          = -.20481599E-1
MEAN_MOTION_DOT = -.640004E-2
MEAN_MOTION_DDOT = 0

CCSDS_OMM_VERS = 2.0
CREATION_DATE  = 
ORIGINATOR     = 

OBJECT_NAME    = STARLINK-36747
OBJECT_ID      = 2026-026K
CENTER_NAME    = EARTH
REF_FRAME      = TEME
TIME_SYSTEM    = UTC
MEAN_ELEMENT_THEORY = SGP/SGP4

EPOCH          = 2026-03-12T22:00:01.999584
MEAN_MOTION    = 15.34598957
ECCENTRICITY   = .00017927
INCLINATION    = 97.2852
RA_OF_ASC_NODE = 126.4739
ARG_OF_PERICENTER = 73.4642
MEAN_ANOMALY   = 155.6575

EPHEMERIS_TYPE = 0
CLASSIFICATION_TYPE = U
NORAD_CAT_ID   = 67730
ELEMENT_SET_NO = 999
REV_AT_EPOCH   = 583
BSTAR          = -.15706735E-1
MEAN_MOTION_DOT = -.493215E-2
MEAN_MOTION_DDOT = 0

CCSDS_OMM_VERS = 2.0
CREATION_DATE  = 
ORIGINATOR     = 

OBJECT_NAME    = STARLINK-36315
OBJECT_ID      = 2026-026L
CENTER_NAME    = EARTH
REF_FRAME      = TEME
TIME_SYSTEM    = UTC
MEAN_ELEMENT_THEORY = SGP/SGP4

EPOCH          = 2026-03-12T22:00:01.999584
MEAN_MOTION    = 15.34946300
ECCENTRICITY   = .00018543
INCLINATION    = 97.2845
RA_OF_ASC_NODE = 126.4834
ARG_OF_PERICENTER = 69.8699
MEAN_ANOMALY   = 186.5862

EPHEMERIS_TYPE = 0
CLASSIFICATION_TYPE = U
NORAD_CAT_ID   = 67731
ELEMENT_SET_NO = 999
REV_AT_EPOCH   = 583
BSTAR          = -.32852934E-1
MEAN_MOTION_DOT = -.1024716E-1
MEAN_MOTION_DDOT = 0

CCSDS_OMM_VERS = 2.0
CREATION_DATE  = 
ORIGINATOR     = 

OBJECT_NAME    = STARLINK-36260
OBJECT_ID      = 2026-026M
CENTER_NAME    = EARTH
REF_FRAME      = TEME
TIME_SYSTEM    = UTC
MEAN_ELEMENT_THEORY = SGP/SGP4

EPOCH          = 2026-03-12T22:00:01.999584
MEAN_MOTION    = 15.36424439
ECCENTRICITY   = .0002454
INCLINATION    = 97.2848
RA_OF_ASC_NODE = 126.4921
ARG_OF_PERICENTER = 101.2389
MEAN_ANOMALY   = 172.9888

EPHEMERIS_TYPE = 0
CLASSIFICATION_TYPE = U
NORAD_CAT_ID   = 67732
ELEMENT_SET_NO = 999
REV_AT_EPOCH   = 583
BSTAR          = -.11292241E+0
MEAN_MOTION_DOT = -.3531596E-1
MEAN_MOTION_DDOT = 0

