STARLINK-36772          
1 67721U 26026A   26071.91668981  .00039745  00000+0  11978-2 0  9998
2 67721  97.2848 126.4173 0000888  87.5687  21.3123 15.34210069  5831
STARLINK-36796          
1 67722U 26026B   26071.91668981  .00034592  00000+0  10429-2 0  9994
2 67722  97.2852 126.4038 0001714  51.0947  29.5838 15.34229024  5835
STARLINK-36369          
1 67723U 26026C   26071.91668981 -.02285954  00000+0 -72643-1 0  9994
2 67723  97.2850 126.4349 0002021  86.0385  52.5570 15.36189708  5830
STARLINK-36752          
1 67724U 26026D   26071.91668981  .00021646  00000+0  67176-3 0  9994
2 67724  97.2848 126.4393 0001390  83.4215  72.8595 15.33404045  5831
STARLINK-36754          
1 67725U 26026E   26071.91668981  .00025700  00000+0  77707-3 0  9991
2 67725  97.2851 126.4174 0001838  99.0010   6.2943 15.34197164  5836
STARLINK-36755          
1 67726U 26026F   26071.91668981 -.01870988  00000+0 -43950-1 0  9992
2 67726  97.2855 126.4284 0001534  71.7309  55.7749 15.45153636  5835
STARLINK-36741          
1 67727U 26026G   26071.91668981 -.02322113  00000+0 -71570-1 0  9995
2 67727  97.2852 126.4213 0001810  84.0948  20.4705 15.37193373  5832
STARLINK-36757          
1 67728U 26026H   26071.91668981 -.00568902  00000+0 -18279-1 0  9999
2 67728  97.2847 126.4626 0001271  76.2035 135.8797 15.34632894  5831
STARLINK-36751          
1 67729U 26026J   26071.91668981 -.00640004  00000+0 -20482-1 0  9993
2 67729  97.2849 126.4752 0001302  74.5807 167.2670 15.34656047  5832
STARLINK-36747          
1 67730U 26026K   26071.91668981 -.00493215  00000+0 -15707-1 0  9999
2 67730  97.2852 126.4739 0001792  73.4642 155.6575 15.34598957  5831
STARLINK-36315          
1 67731U 26026L   26071.91668981 -.01024716  00000+0 -32853-1 0  9998
2 67731  97.2845 126.4834 0001854  69.8699 186.5862 15.34946300  5831
STARLINK-36260          
1 67732U 26026M   26071.91668981 -.03531596  00000+0 -11292+0 0  9992
2 67732  97.2848 126.4921 0002454 101.2389 172.9888 15.36424439  5839
